PLEIADES 1A             
1 38012U 11076F   26186.31059049  .00000320  00000+0  78614-4 0  9997
2 38012  98.1969 261.1698 0001758  85.9726   3.9113 14.58542563774636
PLEIADES 1B             
1 39019U 12068A   26186.32744751  .00000523  00000+0  12238-3 0  9993
2 39019  98.1940 261.1294 0001684  83.3391 276.8000 14.58572726723491
