{"fetched_at":"2026-07-05T17:36:46.329Z","source":"https://celestrak.org/NORAD/elements/gp.php?NAME=PLEIADES&FORMAT=JSON","constellation":"pleiades","records":[{"OBJECT_NAME":"PLEIADES 1A","OBJECT_ID":"2011-076F","EPOCH":"2026-07-05T07:27:15.018336","CLASSIFICATION_TYPE":"U","MEAN_MOTION":14.58542563,"ECCENTRICITY":0.00017587,"INCLINATION":98.1969,"RA_OF_ASC_NODE":261.1698,"ARG_OF_PERICENTER":85.9726,"MEAN_ANOMALY":3.9113,"EPHEMERIS_TYPE":0,"NORAD_CAT_ID":38012,"ELEMENT_SET_NO":999,"REV_AT_EPOCH":77463,"BSTAR":0.000078614043,"MEAN_MOTION_DOT":0.0000032,"MEAN_MOTION_DDOT":0},{"OBJECT_NAME":"PLEIADES 1B","OBJECT_ID":"2012-068A","EPOCH":"2026-07-05T07:51:31.464864","CLASSIFICATION_TYPE":"U","MEAN_MOTION":14.58572726,"ECCENTRICITY":0.00016847,"INCLINATION":98.194,"RA_OF_ASC_NODE":261.1294,"ARG_OF_PERICENTER":83.3391,"MEAN_ANOMALY":276.8,"EPHEMERIS_TYPE":0,"NORAD_CAT_ID":39019,"ELEMENT_SET_NO":999,"REV_AT_EPOCH":72349,"BSTAR":0.00012237629,"MEAN_MOTION_DOT":0.00000523,"MEAN_MOTION_DDOT":0}]}
